{"type": "FeatureCollection", "features": [ {"type": "Feature", "properties": {"norad_id": 39620, "name": "COSMOS 2492 (754)", "group": "gnss", "lat": 2.3666350748459393, "lon": -38.845778070261524, "alt_km": 19106.403002799132, "timestamp": "2025-12-18T04:58:34.820123+00:00", "meta": {"OBJECT_NAME": "COSMOS 2492 (754)", "OBJECT_ID": "2014-012A", "EPOCH": "2025-12-16T07:50:46.447872", "MEAN_MOTION": 2.13103282, "ECCENTRICITY": 0.00142536, "INCLINATION": 65.4058, "RA_OF_ASC_NODE": 320.149, "ARG_OF_PERICENTER": 313.159, "MEAN_ANOMALY": 46.7158, "EPHEMERIS_TYPE": 0, "CLASSIFICATION_TYPE": "U", "NORAD_CAT_ID": 39620, "ELEMENT_SET_NO": 999, "REV_AT_EPOCH": 9134, "BSTAR": 0, "MEAN_MOTION_DOT": -6.8e-07, "MEAN_MOTION_DDOT": 0}, "tle": {"line1": "1 39620U 14012A   25350.32692648 -.00000068  00000+0  00000+0 0  9996", "line2": "2 39620  65.4058 320.1490 0014253 313.1590  46.7158  2.13103282 91346"}}, "geometry": {"type": "Point", "coordinates": [-38.845778070261524, 2.3666350748459393]}}, {"type": "Feature", "properties": {"norad_id": 39635, "name": "IRNSS-1B", "group": "gnss", "lat": -12.521724589082222, "lon": -139.77265792995644, "alt_km": 35782.77201346402, "timestamp": "2025-12-18T04:58:34.820134+00:00", "meta": {"OBJECT_NAME": "IRNSS-1B", "OBJECT_ID": "2014-017A", "EPOCH": "2025-12-17T18:43:29.026848", "MEAN_MOTION": 1.00270156, "ECCENTRICITY": 0.00188771, "INCLINATION": 29.2563, "RA_OF_ASC_NODE": 243.5188, "ARG_OF_PERICENTER": 247.8275, "MEAN_ANOMALY": 291.5675, "EPHEMERIS_TYPE": 0, "CLASSIFICATION_TYPE": "U", "NORAD_CAT_ID": 39635, "ELEMENT_SET_NO": 999, "REV_AT_EPOCH": 4297, "BSTAR": 0, "MEAN_MOTION_DOT": 1.47e-06, "MEAN_MOTION_DDOT": 0}, "tle": {"line1": "1 39635U 14017A   25351.78019707  .00000147  00000+0  00000+0 0  9994", "line2": "2 39635  29.2563 243.5188 0018877 247.8275 291.5675  1.00270156 42971"}}, "geometry": {"type": "Point", "coordinates": [-139.77265792995644, -12.521724589082222]}}, {"type": "Feature", "properties": {"norad_id": 39727, "name": "LUCH 5V (SDCM/PRN 141)", "group": "gnss", "lat": -0.4239482227571966, "lon": -103.64287642665289, "alt_km": 35770.874717453546, "timestamp": "2025-12-18T04:58:34.820145+00:00", "meta": {"OBJECT_NAME": "LUCH 5V (SDCM/PRN 141)", "OBJECT_ID": "2014-023A", "EPOCH": "2025-12-17T21:28:21.526176", "MEAN_MOTION": 1.00267801, "ECCENTRICITY": 0.00043133, "INCLINATION": 4.6819, "RA_OF_ASC_NODE": 71.4917, "ARG_OF_PERICENTER": 211.0204, "MEAN_ANOMALY": 221.0284, "EPHEMERIS_TYPE": 0, "CLASSIFICATION_TYPE": "U", "NORAD_CAT_ID": 39727, "ELEMENT_SET_NO": 999, "REV_AT_EPOCH": 4254, "BSTAR": 0, "MEAN_MOTION_DOT": -2.47e-06, "MEAN_MOTION_DDOT": 0}, "tle": {"line1": "1 39727U 14023A   25351.89469359 -.00000247  00000+0  00000+0 0  9999", "line2": "2 39727   4.6819  71.4917 0004313 211.0204 221.0284  1.00267801 42547"}}, "geometry": {"type": "Point", "coordinates": [-103.64287642665289, -0.4239482227571966]}}, {"type": "Feature", "properties": {"norad_id": 39741, "name": "GPS BIIF-6  (PRN 06)", "group": "gnss", "lat": 12.552030556417957, "lon": 150.10087293187124, "alt_km": 20274.87510115746, "timestamp": "2025-12-18T04:58:34.820157+00:00", "meta": {"OBJECT_NAME": "GPS BIIF-6  (PRN 06)", "OBJECT_ID": "2014-026A", "EPOCH": "2025-12-17T11:30:51.107616", "MEAN_MOTION": 2.00561119, "ECCENTRICITY": 0.00393141, "INCLINATION": 56.5818, "RA_OF_ASC_NODE": 338.592, "ARG_OF_PERICENTER": 318.961, "MEAN_ANOMALY": 40.7519, "EPHEMERIS_TYPE": 0, "CLASSIFICATION_TYPE": "U", "NORAD_CAT_ID": 39741, "ELEMENT_SET_NO": 999, "REV_AT_EPOCH": 8489, "BSTAR": 0, "MEAN_MOTION_DOT": -8.5e-07, "MEAN_MOTION_DDOT": 0}, "tle": {"line1": "1 39741U 14026A   25351.47975819 -.00000085  00000+0  00000+0 0  9995", "line2": "2 39741  56.5818 338.5920 0039314 318.9610  40.7519  2.00561119 84897"}}, "geometry": {"type": "Point", "coordinates": [150.10087293187124, 12.552030556417957]}}, {"type": "Feature", "properties": {"norad_id": 40001, "name": "COSMOS 2500 (755)", "group": "gnss", "lat": -44.56897850375133, "lon": 166.72899010866772, "alt_km": 19114.790014676593, "timestamp": "2025-12-18T04:58:34.820168+00:00", "meta": {"OBJECT_NAME": "COSMOS 2500 (755)", "OBJECT_ID": "2014-032A", "EPOCH": "2025-12-16T23:14:23.843328", "MEAN_MOTION": 2.13106023, "ECCENTRICITY": 0.00080797, "INCLINATION": 65.3407, "RA_OF_ASC_NODE": 319.8884, "ARG_OF_PERICENTER": 219.086, "MEAN_ANOMALY": 140.8487, "EPHEMERIS_TYPE": 0, "CLASSIFICATION_TYPE": "U", "NORAD_CAT_ID": 40001, "ELEMENT_SET_NO": 999, "REV_AT_EPOCH": 8957, "BSTAR": 0, "MEAN_MOTION_DOT": -6.8e-07, "MEAN_MOTION_DDOT": 0}, "tle": {"line1": "1 40001U 14032A   25350.96833152 -.00000068  00000+0  00000+0 0  9990", "line2": "2 40001  65.3407 319.8884 0008079 219.0860 140.8487  2.13106023 89572"}}, "geometry": {"type": "Point", "coordinates": [166.72899010866772, -44.56897850375133]}}, {"type": "Feature", "properties": {"norad_id": 40105, "name": "GPS BIIF-7  (PRN 09)", "group": "gnss", "lat": 53.29368870436266, "lon": -152.83206881457951, "alt_km": 20092.57058436509, "timestamp": "2025-12-18T04:58:34.820179+00:00", "meta": {"OBJECT_NAME": "GPS BIIF-7  (PRN 09)", "OBJECT_ID": "2014-045A", "EPOCH": "2025-12-16T13:40:35.692320", "MEAN_MOTION": 2.00572829, "ECCENTRICITY": 0.00326078, "INCLINATION": 55.2314, "RA_OF_ASC_NODE": 95.7461, "ARG_OF_PERICENTER": 119.9914, "MEAN_ANOMALY": 240.3146, "EPHEMERIS_TYPE": 0, "CLASSIFICATION_TYPE": "U", "NORAD_CAT_ID": 40105, "ELEMENT_SET_NO": 999, "REV_AT_EPOCH": 8241, "BSTAR": 0, "MEAN_MOTION_DOT": -4.2e-07, "MEAN_MOTION_DDOT": 0}, "tle": {"line1": "1 40105U 14045A   25350.56985755 -.00000042  00000+0  00000+0 0  9994", "line2": "2 40105  55.2314  95.7461 0032607 119.9914 240.3146  2.00572829 82416"}}, "geometry": {"type": "Point", "coordinates": [-152.83206881457951, 53.29368870436266]}}, {"type": "Feature", "properties": {"norad_id": 40128, "name": "GSAT0201 (GALILEO 5)", "group": "gnss", "lat": -38.551418122922676, "lon": -122.83830437527187, "alt_km": 24224.245424439978, "timestamp": "2025-12-18T04:58:34.820192+00:00", "meta": {"OBJECT_NAME": "GSAT0201 (GALILEO 5)", "OBJECT_ID": "2014-050A", "EPOCH": "2025-12-14T00:08:14.916480", "MEAN_MOTION": 1.85519648, "ECCENTRICITY": 0.16480052, "INCLINATION": 49.0753, "RA_OF_ASC_NODE": 281.012, "ARG_OF_PERICENTER": 172.3262, "MEAN_ANOMALY": 190.5827, "EPHEMERIS_TYPE": 0, "CLASSIFICATION_TYPE": "U", "NORAD_CAT_ID": 40128, "ELEMENT_SET_NO": 999, "REV_AT_EPOCH": 7488, "BSTAR": 0, "MEAN_MOTION_DOT": -9.9e-07, "MEAN_MOTION_DDOT": 0}, "tle": {"line1": "1 40128U 14050A   25348.00572820 -.00000099  00000+0  00000+0 0  9998", "line2": "2 40128  49.0753 281.0120 1648005 172.3262 190.5827  1.85519648 74882"}}, "geometry": {"type": "Point", "coordinates": [-122.83830437527187, -38.551418122922676]}}, {"type": "Feature", "properties": {"norad_id": 40129, "name": "GSAT0202 (GALILEO 6)", "group": "gnss", "lat": 48.03017091930666, "lon": 25.615949159208316, "alt_km": 19559.312038150467, "timestamp": "2025-12-18T04:58:34.820206+00:00", "meta": {"OBJECT_NAME": "GSAT0202 (GALILEO 6)", "OBJECT_ID": "2014-050B", "EPOCH": "2025-12-14T06:17:14.023104", "MEAN_MOTION": 1.85520414, "ECCENTRICITY": 0.16487132, "INCLINATION": 49.0906, "RA_OF_ASC_NODE": 280.0852, "ARG_OF_PERICENTER": 173.0839, "MEAN_ANOMALY": 189.5459, "EPHEMERIS_TYPE": 0, "CLASSIFICATION_TYPE": "U", "NORAD_CAT_ID": 40129, "ELEMENT_SET_NO": 999, "REV_AT_EPOCH": 7705, "BSTAR": 0, "MEAN_MOTION_DOT": -9.7e-07, "MEAN_MOTION_DDOT": 0}, "tle": {"line1": "1 40129U 14050B   25348.26196786 -.00000097  00000+0  00000+0 0  9998", "line2": "2 40129  49.0906 280.0852 1648713 173.0839 189.5459  1.85520414 77052"}}, "geometry": {"type": "Point", "coordinates": [25.615949159208316, 48.03017091930666]}}, {"type": "Feature", "properties": {"norad_id": 40269, "name": "IRNSS-1C", "group": "gnss", "lat": 2.7872866871588076, "lon": -115.08280453989335, "alt_km": 35851.92847386587, "timestamp": "2025-12-18T04:58:34.820262+00:00", "meta": {"OBJECT_NAME": "IRNSS-1C", "OBJECT_ID": "2014-061A", "EPOCH": "2025-12-17T21:33:21.777408", "MEAN_MOTION": 1.00274376, "ECCENTRICITY": 0.00180787, "INCLINATION": 6.0545, "RA_OF_ASC_NODE": 92.5192, "ARG_OF_PERICENTER": 1.4456, "MEAN_ANOMALY": 39.108, "EPHEMERIS_TYPE": 0, "CLASSIFICATION_TYPE": "U", "NORAD_CAT_ID": 40269, "ELEMENT_SET_NO": 999, "REV_AT_EPOCH": 4087, "BSTAR": 0, "MEAN_MOTION_DOT": -1.42e-06, "MEAN_MOTION_DDOT": 0}, "tle": {"line1": "1 40269U 14061A   25351.89816872 -.00000142  00000+0  00000+0 0  9994", "line2": "2 40269   6.0545  92.5192 0018078   1.4456  39.1080  1.00274376 40875"}}, "geometry": {"type": "Point", "coordinates": [-115.08280453989335, 2.7872866871588076]}}, {"type": "Feature", "properties": {"norad_id": 40294, "name": "GPS BIIF-8  (PRN 03)", "group": "gnss", "lat": -9.768539915208175, "lon": -135.59265217236938, "alt_km": 20270.169529004037, "timestamp": "2025-12-18T04:58:34.820277+00:00", "meta": {"OBJECT_NAME": "GPS BIIF-8  (PRN 03)", "OBJECT_ID": "2014-068A", "EPOCH": "2025-12-16T22:42:57.008160", "MEAN_MOTION": 2.00565217, "ECCENTRICITY": 0.00607888, "INCLINATION": 56.8609, "RA_OF_ASC_NODE": 37.9832, "ARG_OF_PERICENTER": 69.0803, "MEAN_ANOMALY": 291.6294, "EPHEMERIS_TYPE": 0, "CLASSIFICATION_TYPE": "U", "NORAD_CAT_ID": 40294, "ELEMENT_SET_NO": 999, "REV_AT_EPOCH": 8155, "BSTAR": 0, "MEAN_MOTION_DOT": -7.8e-07, "MEAN_MOTION_DDOT": 0}, "tle": {"line1": "1 40294U 14068A   25350.94649315 -.00000078  00000+0  00000+0 0  9998", "line2": "2 40294  56.8609  37.9832 0060788  69.0803 291.6294  2.00565217 81552"}}, "geometry": {"type": "Point", "coordinates": [-135.59265217236938, -9.768539915208175]}}]}